{
  "type": "FeatureCollection",
  "features": [
    {
      "type": "Feature",
      "properties": { "이름": "정보문화관" },
      "geometry": {
        "type": "Polygon",
        "coordinates": [
          [
            [126.9983113, 37.5603386],
            [126.9988615, 37.5601445],
            [126.998703, 37.5599687],
            [126.9988384, 37.5595234],
            [126.9986541, 37.5592791],
            [126.9985072, 37.5592837],
            [126.9984496, 37.559528],
            [126.9982364, 37.5595234],
            [126.9982508, 37.5597769],
            [126.9980377, 37.5597655],
            [126.998029, 37.5599185],
            [126.9982019, 37.5599299],
            [126.9981529, 37.5600418],
            [126.9983113, 37.5603386]
          ]
        ]
      }
    },
    {
      "type": "Feature",
      "properties": { "이름": "원흥관" },
      "geometry": {
        "type": "Polygon",
        "coordinates": [
          [
            [126.9984459, 37.5595334],
            [126.9981949, 37.5595182],
            [126.9982619, 37.5591035],
            [126.9986969, 37.558783],
            [126.9985819, 37.5585005],
            [126.999082, 37.5583668],
            [126.999287, 37.5588392],
            [126.9992334, 37.5590397],
            [126.9992602, 37.5591111],
            [126.9988387, 37.5595334],
            [126.9986509, 37.5592843],
            [126.998511, 37.5592888],
            [126.9984459, 37.5595334]
          ]
        ]
      }
    },
    {
      "type": "Feature",
      "properties": { "이름": "만해광장" },
      "geometry": {
        "type": "Polygon",
        "coordinates": [
          [
            [126.9988541, 37.5601505],
            [126.9990057, 37.5603146],
            [127.000067, 37.5600396],
            [126.99993, 37.5592283],
            [126.9998863, 37.5591821],
            [126.9992544, 37.5591113],
            [126.9988374, 37.5595294],
            [126.9986982, 37.5599713],
            [126.9988541, 37.5601505]
          ]
        ]
      }
    },
    {
      "type": "Feature",
      "properties": { "이름": "학림관" },
      "geometry": {
        "type": "Polygon",
        "coordinates": [
          [
            [126.9988492, 37.5601473],
            [126.9986064, 37.5602331],
            [126.998911, 37.5605813],
            [126.9992333, 37.5606548],
            [127.0000941, 37.5604448],
            [127.0005179, 37.5604728],
            [127.0003634, 37.5600354],
            [127.0000897, 37.5600844],
            [127.0000632, 37.5600406],
            [126.9990081, 37.5603118],
            [126.9988492, 37.5601473]
          ]
        ]
      }
    },
    {
      "type": "Feature",
      "properties": { "이름": "금강관" },
      "geometry": {
        "type": "Polygon",
        "coordinates": [
          [
            [126.9998723, 37.5591842],
            [127.0003131, 37.5592194],
            [127.0005678, 37.5599118],
            [127.0007862, 37.5598669],
            [127.0008359, 37.5602751],
            [127.0007476, 37.5604948],
            [127.000515, 37.5604743],
            [127.000362, 37.5600389],
            [127.0000863, 37.5600884],
            [127.0000622, 37.560044],
            [126.9999292, 37.5592298],
            [126.9998723, 37.5591842]
          ]
        ]
      }
    },
    {
      "type": "Feature",
      "properties": { "이름": "본관" },
      "geometry": {
        "type": "Polygon",
        "coordinates": [
          [
            [126.9990737, 37.5583752],
            [126.9991064, 37.5582283],
            [126.9996516, 37.5580658],
            [127.0000478, 37.55893],
            [126.9999751, 37.5591467],
            [126.9999899, 37.559197],
            [126.9992562, 37.5591148],
            [126.9992297, 37.5590409],
            [126.9992848, 37.5588412],
            [126.9990737, 37.5583752]
          ]
        ]
      }
    },
    {
      "type": "Feature",
      "properties": { "이름": "팔정도" },
      "geometry": {
        "type": "Polygon",
        "coordinates": [
          [
            [127.0000472, 37.5589256],
            [127.0004159, 37.5588318],
            [127.000407, 37.5587963],
            [127.0007131, 37.558683],
            [127.0009007, 37.5584988],
            [127.0007376, 37.5583429],
            [127.0005164, 37.5577974],
            [126.9996406, 37.55804],
            [127.0000472, 37.5589256]
          ]
        ]
      }
    },
    {
      "type": "Feature",
      "properties": { "이름": "신공학관" },
      "geometry": {
        "type": "Polygon",
        "coordinates": [
          [
            [126.9985812, 37.5585044],
            [126.9983396, 37.5585682],
            [126.9983396, 37.5586278],
            [126.9980533, 37.5587101],
            [126.9980211, 37.5586874],
            [126.9979245, 37.5587101],
            [126.9975541, 37.5584916],
            [126.9975165, 37.5583441],
            [126.9978762, 37.5579753],
            [126.9983772, 37.5578037],
            [126.9986456, 37.557859],
            [126.999075, 37.5583725],
            [126.9985812, 37.5585044]
          ]
        ]
      }
    },
    {
      "type": "Feature",
      "properties": { "이름": "중앙도서관" },
      "geometry": {
        "type": "Polygon",
        "coordinates": [
          [
            [126.9986408, 37.5578629],
            [126.9987731, 37.5575158],
            [126.9991865, 37.5574061],
            [126.999325, 37.5575917],
            [126.9994879, 37.5580114],
            [126.9996407, 37.5580411],
            [126.9996538, 37.5580677],
            [126.9991061, 37.5582292],
            [126.9990755, 37.5583729],
            [126.9986408, 37.5578629]
          ]
        ]
      }
    },
    {
      "type": "Feature",
      "properties": { "이름": "명진관" },
      "geometry": {
        "type": "Polygon",
        "coordinates": [
          [
            [126.9996354, 37.558042],
            [127.0005173, 37.5577979],
            [127.0006053, 37.5577179],
            [127.0004934, 37.5572921],
            [126.9993191, 37.5575907],
            [126.9994853, 37.558014],
            [126.9996354, 37.558042]
          ]
        ]
      }
    },
    {
      "type": "Feature",
      "properties": { "이름": "과학관" },
      "geometry": {
        "type": "Polygon",
        "coordinates": [
          [
            [126.9993204, 37.5575932],
            [126.999184, 37.5574076],
            [126.9991066, 37.5574134],
            [126.9991619, 37.5572702],
            [126.9991121, 37.5571153],
            [126.9991066, 37.5570349],
            [126.9991951, 37.5569107],
            [126.9992024, 37.5568537],
            [126.9995509, 37.5567397],
            [126.9998532, 37.5567291],
            [127.0000744, 37.556957],
            [127.0004026, 37.5568986],
            [127.000491, 37.5572961],
            [126.9993204, 37.5575932]
          ]
        ]
      }
    },
    {
      "type": "Feature",
      "properties": { "이름": "대운동장" },
      "geometry": {
        "type": "Polygon",
        "coordinates": [
          [
            [126.9998478, 37.5567378],
            [126.9996299, 37.5562053],
            [127.0012879, 37.5558367],
            [127.0014811, 37.5567218],
            [127.0000702, 37.5569604],
            [126.9998478, 37.5567378]
          ]
        ]
      }
    },
    {
      "type": "Feature",
      "properties": { "이름": "조소관" },
      "geometry": {
        "type": "Polygon",
        "coordinates": [
          [
            [127.0014714, 37.5567246],
            [127.0027059, 37.5565439],
            [127.0026755, 37.5563582],
            [127.0024262, 37.5561582],
            [127.0022863, 37.5558761],
            [127.0012859, 37.5558352],
            [127.0014714, 37.5567246]
          ]
        ]
      }
    },
    {
      "type": "Feature",
      "properties": { "이름": "법학관" },
      "geometry": {
        "type": "Polygon",
        "coordinates": [
          [
            [127.0008898, 37.5585057],
            [127.0011539, 37.55843],
            [127.0012272, 37.5582805],
            [127.0015956, 37.5581626],
            [127.0011682, 37.5567717],
            [127.0003915, 37.5569042],
            [127.0005992, 37.5577168],
            [127.0005089, 37.5577991],
            [127.0007437, 37.5583575],
            [127.0008898, 37.5585057]
          ]
        ]
      }
    },
    {
      "type": "Feature",
      "properties": { "이름": "혜화관" },
      "geometry": {
        "type": "Polygon",
        "coordinates": [
          [
            [127.0015795, 37.558169],
            [127.0019373, 37.5581994],
            [127.0024272, 37.5580238],
            [127.0020694, 37.5566425],
            [127.0011705, 37.5567743],
            [127.0015795, 37.558169]
          ]
        ]
      }
    },
    {
      "type": "Feature",
      "properties": { "이름": "사회과학관" },
      "geometry": {
        "type": "Polygon",
        "coordinates": [
          [
            [127.0027028, 37.5565526],
            [127.0035141, 37.5572651],
            [127.0027028, 37.5574455],
            [127.0029654, 37.5585097],
            [127.0026211, 37.558283],
            [127.0023818, 37.5583801],
            [127.0021017, 37.5581488],
            [127.002411, 37.5580239],
            [127.0020608, 37.5566451],
            [127.0027028, 37.5565526]
          ]
        ]
      }
    },
    {
      "type": "Feature",
      "properties": { "이름": "문화관" },
      "geometry": {
        "type": "Polygon",
        "coordinates": [
          [
            [127.0029414, 37.5585169],
            [127.0033208, 37.5588315],
            [127.0035659, 37.5588222],
            [127.0038869, 37.5581837],
            [127.0035134, 37.5572584],
            [127.0026905, 37.5574435],
            [127.0029414, 37.5585169]
          ]
        ]
      }
    }
  ]
}